[{"OBJECT_NAME":"SITRO-AIS 21","OBJECT_ID":"2024-199E","EPOCH":"2026-03-09T22:38:47.668992","MEAN_MOTION":14.94747634,"ECCENTRICITY":0.00136926,"INCLINATION":97.333,"RA_OF_ASC_NODE":273.2344,"ARG_OF_PERICENTER":42.1108,"MEAN_ANOMALY":318.1163,"EPHEMERIS_TYPE":0,"CLASSIFICATION_TYPE":"U","NORAD_CAT_ID":61739,"ELEMENT_SET_NO":999,"REV_AT_EPOCH":11692,"BSTAR":0.00018121744,"MEAN_MOTION_DOT":1.92e-5,"MEAN_MOTION_DDOT":0},{"OBJECT_NAME":"STARLINK-36224","OBJECT_ID":"2025-304M","EPOCH":"2026-03-09T16:26:50.093664","MEAN_MOTION":14.97535483,"ECCENTRICITY":0.00042289,"INCLINATION":70.0008,"RA_OF_ASC_NODE":174.4831,"ARG_OF_PERICENTER":273.0988,"MEAN_ANOMALY":86.9687,"EPHEMERIS_TYPE":0,"CLASSIFICATION_TYPE":"U","NORAD_CAT_ID":67203,"ELEMENT_SET_NO":999,"REV_AT_EPOCH":1388,"BSTAR":0.00028130763,"MEAN_MOTION_DOT":3.198e-5,"MEAN_MOTION_DDOT":0}]
